NORAD_CAT_ID,OBJECT_NAME,OBJECT_TYPE,EPOCH,MEAN_MOTION,ECCENTRICITY,INCLINATION,RA_OF_ASC_NODE,ARG_OF_PERICENTER,MEAN_ANOMALY,BSTAR,MEAN_MOTION_DOT,MEAN_MOTION_DDOT,TLE_LINE0,TLE_LINE1,TLE_LINE2,SEMIMAJOR_AXIS,PERIOD,APOGEE,PERIGEE,DECAYED
51811.0,STARLINK-3569,PAYLOAD,2022-05-05 04:00:00,15.44342633,0.0001969,53.2176,166.9994,29.4489,71.0812,-0.016578,-0.00718505,0.0,0 STARLINK-3569,1 51811U 22017AV  22125.16667824 -.00718505  00000-0 -16578-1 0  9996,2 51811  53.2176 166.9994 0001969  29.4489  71.0812 15.44342633 11980,6811.446999999999,93.244,434.653,431.971,0.0
51811.0,STARLINK-3569,PAYLOAD,2022-05-05 14:00:01,15.43702947,0.0001871,53.2172,165.0301,35.5245,222.3372,-0.016837,-0.00714295,0.0,0 STARLINK-3569,1 51811U 22017AV  22125.58334491 -.00714295  00000-0 -16837-1 0  9993,2 51811  53.2172 165.0301 0001871  35.5245 222.3372 15.43702947  3696,6813.329000000002,93.282,436.469,433.919,0.0
51811.0,STARLINK-3569,PAYLOAD,2022-05-05 22:00:00,15.43194371,0.0001547,53.2175,163.4528,41.1688,269.8702,-0.017205,-0.00717124,0.0,0 STARLINK-3569,1 51811U 22017AV  22125.91667824 -.00717124  00000-0 -17205-1 0  9993,2 51811  53.2175 163.4528 0001547  41.1688 269.8702 15.43194371  3684,6814.826,93.313,437.745,435.636,0.0
51811.0,STARLINK-3569,PAYLOAD,2022-05-06 04:00:00,15.42813647,0.000187,53.2175,162.2721,36.6958,223.8223,-0.017487,-0.00719411,0.0,0 STARLINK-3569,1 51811U 22017AV  22126.16667824 -.00719411  00000-0 -17487-1 0  9994,2 51811  53.2175 162.2721 0001870  36.6958 223.8223 15.42813647 12146,6815.946999999999,93.336,439.086,436.537,0.0
51811.0,STARLINK-3569,PAYLOAD,2022-05-06 14:00:01,15.42174617,0.0001595,53.2172,160.3075,36.5047,19.0471,-0.017799,-0.00716785,0.0,0 STARLINK-3569,1 51811U 22017AV  22126.58334491 -.00716785  00000-0 -17799-1 0  9998,2 51811  53.2172 160.3075 0001595  36.5047  19.0471 15.42174617  3682,6817.83,93.375,440.782,438.607,0.0
51811.0,STARLINK-3569,PAYLOAD,2022-05-07 04:00:00,15.41284355,0.0001867,53.2175,157.5559,30.0928,24.8988,-0.018452,-0.00720912,0.0,0 STARLINK-3569,1 51811U 22017AV  22127.16667824 -.00720912  00000-0 -18452-1 0  9996,2 51811  53.2175 157.5559 0001867  30.0928  24.8988 15.41284355 12293,6820.455,93.429,443.593,441.046,0.0
51811.0,STARLINK-3569,PAYLOAD,2022-05-07 14:00:01,15.40644686,0.0001675999999999,53.2172,155.5954,44.6309,163.0966,-0.018734,-0.00716758,0.0,0 STARLINK-3569,1 51811U 22017AV  22127.58334491 -.00716758  00000-0 -18734-1 0  9999,2 51811  53.2172 155.5954 0001676  44.6309 163.0966 15.40644686  3680,6822.342,93.467,445.351,443.064,0.0
51811.0,STARLINK-3569,PAYLOAD,2022-05-07 22:00:00,15.4013409,0.000184,53.2174,154.0252,35.6617,221.567,-0.019026,-0.00715774,0.0,0 STARLINK-3569,1 51811U 22017AV  22127.91667824 -.00715774  00000-0 -19026-1 0  9997,2 51811  53.2174 154.0252 0001840  35.6617 221.5670 15.40134090  3687,6823.85,93.498,446.971,444.46,0.0
51811.0,STARLINK-3569,PAYLOAD,2022-05-08 04:00:00,15.39752692,0.0002055,53.2176,152.8506,32.9537,170.9968,-0.019323,-0.0071768999999999,0.0,0 STARLINK-3569,1 51811U 22017AV  22128.16667824 -.00717690  00000-0 -19323-1 0  9994,2 51811  53.2176 152.8506 0002055  32.9537 170.9968 15.39752692 12440,6824.977,93.522,448.245,445.439,0.0
51811.0,STARLINK-3569,PAYLOAD,2022-05-08 14:00:01,15.39116234,0.0001424,53.2174,150.8943,45.0664,309.321,-0.019759,-0.00718442,0.0,0 STARLINK-3569,1 51811U 22017AV  22128.58334491 -.00718442  00000-0 -19759-1 0  9990,2 51811  53.2174 150.8943 0001424  45.0664 309.3210 15.39116234  3675,6826.858,93.56,449.696,447.751,0.0
51811.0,STARLINK-3569,PAYLOAD,2022-05-08 22:00:00,15.38604214,0.0001614,53.2174,149.3279,35.5687,6.4824,-0.020033,-0.00716418,0.0,0 STARLINK-3569,1 51811U 22017AV  22128.91667824 -.00716418  00000-0 -20033-1 0  9994,2 51811  53.2174 149.3279 0001614  35.5687   6.4824 15.38604214  3675,6828.373000000001,93.591,451.34,449.136,0.0
51811.0,STARLINK-3569,PAYLOAD,2022-05-09 04:00:00,15.38224807,0.0001858,53.2179,148.156,31.0667,316.3264,-0.020422,-0.00720959,0.0,0 STARLINK-3569,1 51811U 22017AV  22129.16667824 -.00720959  00000-0 -20422-1 0  9999,2 51811  53.2179 148.1560 0001858  31.0667 316.3264 15.38224807 12609,6829.496,93.614,452.63,450.092,0.0
51811.0,STARLINK-3569,PAYLOAD,2022-05-09 14:00:01,15.37585546,0.0001676999999999,53.2172,146.204,41.4772,94.1203,-0.020753,-0.0071771,0.0,0 STARLINK-3569,1 51811U 22017AV  22129.58335648 -.00717710  00000-0 -20753-1 0  9999,2 51811  53.2172 146.2040 0001677  41.4772  94.1203 15.37585546  3675,6831.388000000001,93.653,454.399,452.108,0.0
51811.0,STARLINK-3569,PAYLOAD,2022-05-09 22:00:00,15.37075772,0.0001716,53.2173,144.6414,42.8476,138.5098,-0.021125,-0.00718479,0.0,0 STARLINK-3569,1 51811U 22017AV  22129.91667824 -.00718479  00000-0 -21125-1 0  9997,2 51811  53.2173 144.6414 0001716  42.8476 138.5098 15.37075772  3673,6832.899,93.684,455.936,453.591,0.0
51811.0,STARLINK-3569,PAYLOAD,2022-05-10 04:00:00,15.36694095,0.0001948,53.2177,143.4723,34.1057,91.216,-0.021427,-0.00719703,0.0,0 STARLINK-3569,1 51811U 22017AV  22130.16667824 -.00719703  00000-0 -21427-1 0  9992,2 51811  53.2177 143.4723 0001948  34.1057  91.2160 15.36694095 12751,6834.03,93.708,457.226,454.564,0.0
51811.0,STARLINK-3569,PAYLOAD,2022-05-10 14:00:01,15.36057694,0.0001636,53.2172,141.5248,45.1572,226.0059,-0.021929,-0.0072135,0.0,0 STARLINK-3569,1 51811U 22017AV  22130.58334491 -.00721350  00000-0 -21929-1 0  9997,2 51811  53.2172 141.5248 0001636  45.1572 226.0059 15.36057694  3679,6835.918000000002,93.746,458.901,456.664,0.0
51811.0,STARLINK-3569,PAYLOAD,2022-05-10 18:00:00,15.358015599999998,0.0001688,53.2174,140.7445,40.9981,72.2349,-0.022027,-0.00718818,0.0,0 STARLINK-3569,1 51811U 22017AV  22130.75001157 -.00718818  00000-0 -22027-1 0  9991,2 51811  53.2174 140.7445 0001688  40.9981  72.2349 15.35801560  3654,6836.678000000001,93.762,459.697,457.389,0.0
51811.0,STARLINK-3569,PAYLOAD,2022-05-11 20:00:01,15.34141402,0.0001449,53.2175,135.6898,45.1332,297.8145,-0.023088,-0.00714642,0.0,0 STARLINK-3569,1 51811U 22017AV  22131.83334491 -.00714642  00000-0 -23088-1 0  9990,2 51811  53.2175 135.6898 0001449  45.1332 297.8145 15.34141402 13013,6841.609,93.864,464.465,462.483,0.0
51811.0,STARLINK-3569,PAYLOAD,2022-05-11 22:00:00,15.34015097,0.0001567,53.2174,135.3013,41.9219,41.5047,-0.023273,-0.00717274,0.0,0 STARLINK-3569,1 51811U 22017AV  22131.91667824 -.00717274  00000-0 -23273-1 0  9998,2 51811  53.2174 135.3013 0001567  41.9219  41.5047 15.34015097  1301,6841.984,93.871,464.922,462.777,0.0
51811.0,STARLINK-3569,PAYLOAD,2022-05-12 14:00:01,15.32995814,0.0001703,53.2172,132.1991,44.2679,121.6114,-0.024047,-0.00717494,0.0,0 STARLINK-3569,1 51811U 22017AV  22132.58334491 -.00717494  00000-0 -24047-1 0  9997,2 51811  53.2172 132.1991 0001703  44.2679 121.6114 15.32995814  1304,6845.017,93.934,468.048,465.716,0.0
51811.0,STARLINK-3569,PAYLOAD,2022-05-12 20:00:01,15.32611864,0.0001720999999999,53.2174,131.0352,36.5116,69.6572,-0.024261,-0.00715313,0.0,0 STARLINK-3569,1 51811U 22017AV  22132.83334491 -.00715313  00000-0 -24261-1 0  9991,2 51811  53.2174 131.0352 0001721  36.5116  69.6572 15.32611864 13161,6846.16,93.957,469.203,466.847,0.0
51811.0,STARLINK-3569,PAYLOAD,2022-05-12 22:00:00,15.32486505,0.0001773,53.2172,130.6474,43.3096,162.8782,-0.0245,-0.00719194,0.0,0 STARLINK-3569,1 51811U 22017AV  22132.91667824 -.00719194  00000-0 -24500-1 0  9996,2 51811  53.2172 130.6474 0001773  43.3096 162.8782 15.32486505  1303,6846.533,93.965,469.612,467.185,0.0
51811.0,STARLINK-3569,PAYLOAD,2022-05-13 14:00:01,15.3146755,0.0001513,53.2172,127.5524,51.2799,233.6839,-0.025355,-0.00720629,0.0,0 STARLINK-3569,1 51811U 22017AV  22133.58334491 -.00720629  00000-0 -25355-1 0  9995,2 51811  53.2172 127.5524 0001513  51.2799 233.6839 15.31467550  1302,6849.57,94.027,472.471,470.399,0.0
51811.0,STARLINK-3569,PAYLOAD,2022-05-13 20:00:01,15.31082139,0.0001546,53.2173,126.3911,53.0388,170.8362,-0.02545,-0.00715098,0.0,0 STARLINK-3569,1 51811U 22017AV  22133.83334491 -.00715098  00000-0 -25450-1 0  9993,2 51811  53.2173 126.3911 0001546  53.0388 170.8362 15.31082139 13324,6850.719,94.051,473.644,471.525,0.0
51811.0,STARLINK-3569,PAYLOAD,2022-05-13 22:00:00,15.30954115,0.0001418,53.2174,126.0045,54.5079,268.9273,-0.02554,-0.00714765,0.0,0 STARLINK-3569,1 51811U 22017AV  22133.91667824 -.00714765  00000-0 -25540-1 0  9991,2 51811  53.2174 126.0045 0001418  54.5079 268.9273 15.30954115  1307,6851.101,94.059,473.93800000000016,471.995,0.0
51811.0,STARLINK-3569,PAYLOAD,2022-05-14 14:00:01,15.29936363,0.0001564999999999,53.2173,122.9167,40.6149,357.9191,-0.026495,-0.00718072,0.0,0 STARLINK-3569,1 51811U 22017AV  22134.58334491 -.00718072  00000-0 -26495-1 0  9991,2 51811  53.2173 122.9167 0001565  40.6149 357.9191 15.29936363  1304,6854.139,94.122,477.077,474.932,0.0
51811.0,STARLINK-3569,PAYLOAD,2022-05-14 20:00:01,15.29550926,0.0001544,53.2173,121.7581,41.6848,294.3818,-0.026613,-0.00713092,0.0,0 STARLINK-3569,1 51811U 22017AV  22134.83334491 -.00713092  00000-0 -26613-1 0  9998,2 51811  53.2173 121.7581 0001544  41.6848 294.3818 15.29550926 13473,6855.291,94.145,478.214,476.097,0.0
51811.0,STARLINK-3569,PAYLOAD,2022-05-14 22:00:00,15.29425042,0.0001686999999999,53.2173,121.3723,39.1947,35.9716,-0.026826,-0.00715798,0.0,0 STARLINK-3569,1 51811U 22017AV  22134.91667824 -.00715798  00000-0 -26826-1 0  9997,2 51811  53.2173 121.3723 0001687  39.1947  35.9716 15.29425042  1302,6855.667,94.153,478.68800000000016,476.375,0.0
51811.0,STARLINK-3569,PAYLOAD,2022-05-15 14:00:01,15.28405516,0.0001821,53.2172,118.2915,39.2118,107.4412,-0.027704,-0.00724576,0.0,0 STARLINK-3569,1 51811U 22017AV  22135.58335648 -.00724576  00000-0 -27704-1 0  9997,2 51811  53.2172 118.2915 0001821  39.2118 107.4412 15.28405516  1301,6858.715,94.216,481.829,479.331,0.0
